{
    "links": {
        "self": "http://www.neowsapp.com/rest/v1/neo/3775265?api_key=iIulBulltgU6a56xZRHN4H3l9WmuAYTsLGpBGhQ2"
    },
    "id": "3775265",
    "neo_reference_id": "3775265",
    "name": "(2017 MH)",
    "designation": "2017 MH",
    "nasa_jpl_url": "http://ssd.jpl.nasa.gov/sbdb.cgi?sstr=3775265",
    "absolute_magnitude_h": 21.2,
    "estimated_diameter": {
        "kilometers": {
            "estimated_diameter_min": 0.1529519353,
            "estimated_diameter_max": 0.3420109247
        },
        "meters": {
            "estimated_diameter_min": 152.9519353442,
            "estimated_diameter_max": 342.0109247198
        },
        "miles": {
            "estimated_diameter_min": 0.095039897,
            "estimated_diameter_max": 0.2125156703
        },
        "feet": {
            "estimated_diameter_min": 501.8108275547,
            "estimated_diameter_max": 1122.0831222578
        }
    },
    "is_potentially_hazardous_asteroid": false,
    "close_approach_data": [
        {
            "close_approach_date": "2015-12-02",
            "close_approach_date_full": "2015-Dec-02 10:15",
            "epoch_date_close_approach": 1449051300000,
            "relative_velocity": {
                "kilometers_per_second": "35.0853865366",
                "kilometers_per_hour": "126307.3915315937",
                "miles_per_hour": "78482.5011436172"
            },
            "miss_distance": {
                "astronomical": "0.2466051949",
                "lunar": "95.9294208161",
                "kilometers": "36891611.887974863",
                "miles": "22923384.6557165894"
            },
            "orbiting_body": "Earth"
        },
        {
            "close_approach_date": "2016-06-05",
            "close_approach_date_full": "2016-Jun-05 12:39",
            "epoch_date_close_approach": 1465130340000,
            "relative_velocity": {
                "kilometers_per_second": "30.0944843525",
                "kilometers_per_hour": "108340.1436689975",
                "miles_per_hour": "67318.3520481057"
            },
            "miss_distance": {
                "astronomical": "0.2666128778",
                "lunar": "103.7124094642",
                "kilometers": "39884718.633450286",
                "miles": "24783214.9458785068"
            },
            "orbiting_body": "Earth"
        },
        {
            "close_approach_date": "2016-12-18",
            "close_approach_date_full": "2016-Dec-18 17:13",
            "epoch_date_close_approach": 1482081180000,
            "relative_velocity": {
                "kilometers_per_second": "34.0229786352",
                "kilometers_per_hour": "122482.7230866844",
                "miles_per_hour": "76106.0009090567"
            },
            "miss_distance": {
                "astronomical": "0.1880429284",
                "lunar": "73.1486991476",
                "kilometers": "28130821.557202508",
                "miles": "17479681.9720222904"
            },
            "orbiting_body": "Earth"
        },
        {
            "close_approach_date": "2017-06-13",
            "close_approach_date_full": "2017-Jun-13 11:39",
            "epoch_date_close_approach": 1497353940000,
            "relative_velocity": {
                "kilometers_per_second": "30.4161450383",
                "kilometers_per_hour": "109498.1221378638",
                "miles_per_hour": "68037.8748361632"
            },
            "miss_distance": {
                "astronomical": "0.2031452768",
                "lunar": "79.0235126752",
                "kilometers": "30390100.709840416",
                "miles": "18883532.9400371008"
            },
            "orbiting_body": "Earth"
        }
    ],
    "orbital_data": {
        "orbit_id": "1",
        "orbit_determination_date": "2017-06-20 19:58:33",
        "first_observation_date": "2017-06-01",
        "last_observation_date": "2017-06-20",
        "data_arc_in_days": 19,
        "observations_used": 58,
        "orbit_uncertainty": "8",
        "minimum_orbit_intersection": ".0560505",
        "jupiter_tisserand_invariant": "5.332",
        "epoch_osculation": "2457915.5",
        "eccentricity": ".1301478090059915",
        "semi_major_axis": "1.049957012915206",
        "inclination": "65.01981001824952",
        "ascending_node_longitude": "79.7276524555959",
        "orbital_period": "392.9666593129111",
        "perihelion_distance": ".9133074081338165",
        "perihelion_argument": "29.21706972731253",
        "aphelion_distance": "1.186606617696596",
        "perihelion_time": "2457770.577050236667",
        "mean_anomaly": "132.7651104193453",
        "mean_motion": ".9161082536351756",
        "equinox": "J2000",
        "orbit_class": {
            "orbit_class_type": "APO",
            "orbit_class_description": "Near-Earth asteroid orbits which cross the Earth’s orbit similar to that of 1862 Apollo",
            "orbit_class_range": "a (semi-major axis) > 1.0 AU; q (perihelion) < 1.017 AU"
        }
    },
    "is_sentry_object": false
}